<?xml version="1.0" encoding="UTF-8"?>
<ndm xmlns:xsi="http://www.w3.org/2001/XMLSchema-instance" xsi:noNamespaceSchemaLocation="https://sanaregistry.org/r/ndmxml_unqualified/ndmxml-2.0.0-master-2.0.xsd">
<omm id="CCSDS_OMM_VERS" version="2.0">
<header><CREATION_DATE/><ORIGINATOR/></header><body><segment><metadata><OBJECT_NAME>KUIPER-00008</OBJECT_NAME><OBJECT_ID>2025-088A</OBJECT_ID><CENTER_NAME>EARTH</CENTER_NAME><REF_FRAME>TEME</REF_FRAME><TIME_SYSTEM>UTC</TIME_SYSTEM><MEAN_ELEMENT_THEORY>SGP4</MEAN_ELEMENT_THEORY></metadata><data><meanElements><EPOCH>2025-07-25T18:00:02.000160</EPOCH><MEAN_MOTION>15.02977394</MEAN_MOTION><ECCENTRICITY>.0012324</ECCENTRICITY><INCLINATION>51.8873</INCLINATION><RA_OF_ASC_NODE>41.6087</RA_OF_ASC_NODE><ARG_OF_PERICENTER>63.0362</ARG_OF_PERICENTER><MEAN_ANOMALY>333.9557</MEAN_ANOMALY></meanElements><tleParameters><EPHEMERIS_TYPE>0</EPHEMERIS_TYPE><CLASSIFICATION_TYPE>U</CLASSIFICATION_TYPE><NORAD_CAT_ID>63724</NORAD_CAT_ID><ELEMENT_SET_NO>999</ELEMENT_SET_NO><REV_AT_EPOCH>1401</REV_AT_EPOCH><BSTAR>-.94367E-1</BSTAR><MEAN_MOTION_DOT>-.1180652E-1</MEAN_MOTION_DOT><MEAN_MOTION_DDOT>0</MEAN_MOTION_DDOT></tleParameters></data></segment></body></omm>
<omm id="CCSDS_OMM_VERS" version="2.0">
<header><CREATION_DATE/><ORIGINATOR/></header><body><segment><metadata><OBJECT_NAME>KUIPER-00009</OBJECT_NAME><OBJECT_ID>2025-088B</OBJECT_ID><CENTER_NAME>EARTH</CENTER_NAME><REF_FRAME>TEME</REF_FRAME><TIME_SYSTEM>UTC</TIME_SYSTEM><MEAN_ELEMENT_THEORY>SGP4</MEAN_ELEMENT_THEORY></metadata><data><meanElements><EPOCH>2025-07-25T18:00:02.000160</EPOCH><MEAN_MOTION>15.19700099</MEAN_MOTION><ECCENTRICITY>.0011698</ECCENTRICITY><INCLINATION>51.8774</INCLINATION><RA_OF_ASC_NODE>35.7961</RA_OF_ASC_NODE><ARG_OF_PERICENTER>86.5871</ARG_OF_PERICENTER><MEAN_ANOMALY>312.6183</MEAN_ANOMALY></meanElements><tleParameters><EPHEMERIS_TYPE>0</EPHEMERIS_TYPE><CLASSIFICATION_TYPE>U</CLASSIFICATION_TYPE><NORAD_CAT_ID>63725</NORAD_CAT_ID><ELEMENT_SET_NO>999</ELEMENT_SET_NO><REV_AT_EPOCH>1409</REV_AT_EPOCH><BSTAR>-.67027E-1</BSTAR><MEAN_MOTION_DOT>-.132495E-1</MEAN_MOTION_DOT><MEAN_MOTION_DDOT>0</MEAN_MOTION_DDOT></tleParameters></data></segment></body></omm>
<omm id="CCSDS_OMM_VERS" version="2.0">
<header><CREATION_DATE/><ORIGINATOR/></header><body><segment><metadata><OBJECT_NAME>KUIPER-00010</OBJECT_NAME><OBJECT_ID>2025-088C</OBJECT_ID><CENTER_NAME>EARTH</CENTER_NAME><REF_FRAME>TEME</REF_FRAME><TIME_SYSTEM>UTC</TIME_SYSTEM><MEAN_ELEMENT_THEORY>SGP4</MEAN_ELEMENT_THEORY></metadata><data><meanElements><EPOCH>2025-07-25T12:20:25.476864</EPOCH><MEAN_MOTION>15.35970844</MEAN_MOTION><ECCENTRICITY>.0009891</ECCENTRICITY><INCLINATION>51.8653</INCLINATION><RA_OF_ASC_NODE>35.8571</RA_OF_ASC_NODE><ARG_OF_PERICENTER>71.1478</ARG_OF_PERICENTER><MEAN_ANOMALY>289.0580</MEAN_ANOMALY></meanElements><tleParameters><EPHEMERIS_TYPE>0</EPHEMERIS_TYPE><CLASSIFICATION_TYPE>U</CLASSIFICATION_TYPE><NORAD_CAT_ID>63726</NORAD_CAT_ID><ELEMENT_SET_NO>999</ELEMENT_SET_NO><REV_AT_EPOCH>1369</REV_AT_EPOCH><BSTAR>.35267E-3</BSTAR><MEAN_MOTION_DOT>.1219E-3</MEAN_MOTION_DOT><MEAN_MOTION_DDOT>0</MEAN_MOTION_DDOT></tleParameters></data></segment></body></omm>
<omm id="CCSDS_OMM_VERS" version="2.0">
<header><CREATION_DATE/><ORIGINATOR/></header><body><segment><metadata><OBJECT_NAME>KUIPER-00011</OBJECT_NAME><OBJECT_ID>2025-088D</OBJECT_ID><CENTER_NAME>EARTH</CENTER_NAME><REF_FRAME>TEME</REF_FRAME><TIME_SYSTEM>UTC</TIME_SYSTEM><MEAN_ELEMENT_THEORY>SGP4</MEAN_ELEMENT_THEORY></metadata><data><meanElements><EPOCH>2025-07-25T17:39:34.318368</EPOCH><MEAN_MOTION>15.35485442</MEAN_MOTION><ECCENTRICITY>.0011423</ECCENTRICITY><INCLINATION>51.8578</INCLINATION><RA_OF_ASC_NODE>35.0273</RA_OF_ASC_NODE><ARG_OF_PERICENTER>79.0371</ARG_OF_PERICENTER><MEAN_ANOMALY>281.1900</MEAN_ANOMALY></meanElements><tleParameters><EPHEMERIS_TYPE>0</EPHEMERIS_TYPE><CLASSIFICATION_TYPE>U</CLASSIFICATION_TYPE><NORAD_CAT_ID>63727</NORAD_CAT_ID><ELEMENT_SET_NO>999</ELEMENT_SET_NO><REV_AT_EPOCH>1386</REV_AT_EPOCH><BSTAR>.28128E-3</BSTAR><MEAN_MOTION_DOT>.9491E-4</MEAN_MOTION_DOT><MEAN_MOTION_DDOT>0</MEAN_MOTION_DDOT></tleParameters></data></segment></body></omm>
<omm id="CCSDS_OMM_VERS" version="2.0">
<header><CREATION_DATE/><ORIGINATOR/></header><body><segment><metadata><OBJECT_NAME>KUIPER-00012</OBJECT_NAME><OBJECT_ID>2025-088E</OBJECT_ID><CENTER_NAME>EARTH</CENTER_NAME><REF_FRAME>TEME</REF_FRAME><TIME_SYSTEM>UTC</TIME_SYSTEM><MEAN_ELEMENT_THEORY>SGP4</MEAN_ELEMENT_THEORY></metadata><data><meanElements><EPOCH>2025-07-25T17:37:11.940672</EPOCH><MEAN_MOTION>15.35606154</MEAN_MOTION><ECCENTRICITY>.0011501</ECCENTRICITY><INCLINATION>51.8563</INCLINATION><RA_OF_ASC_NODE>35.0072</RA_OF_ASC_NODE><ARG_OF_PERICENTER>80.7491</ARG_OF_PERICENTER><MEAN_ANOMALY>279.4795</MEAN_ANOMALY></meanElements><tleParameters><EPHEMERIS_TYPE>0</EPHEMERIS_TYPE><CLASSIFICATION_TYPE>U</CLASSIFICATION_TYPE><NORAD_CAT_ID>63728</NORAD_CAT_ID><ELEMENT_SET_NO>999</ELEMENT_SET_NO><REV_AT_EPOCH>1381</REV_AT_EPOCH><BSTAR>.38237E-3</BSTAR><MEAN_MOTION_DOT>.13101E-3</MEAN_MOTION_DOT><MEAN_MOTION_DDOT>0</MEAN_MOTION_DDOT></tleParameters></data></segment></body></omm>
<omm id="CCSDS_OMM_VERS" version="2.0">
<header><CREATION_DATE/><ORIGINATOR/></header><body><segment><metadata><OBJECT_NAME>KUIPER-00013</OBJECT_NAME><OBJECT_ID>2025-088F</OBJECT_ID><CENTER_NAME>EARTH</CENTER_NAME><REF_FRAME>TEME</REF_FRAME><TIME_SYSTEM>UTC</TIME_SYSTEM><MEAN_ELEMENT_THEORY>SGP4</MEAN_ELEMENT_THEORY></metadata><data><meanElements><EPOCH>2025-07-25T18:00:02.000160</EPOCH><MEAN_MOTION>15.16825343</MEAN_MOTION><ECCENTRICITY>.0006208</ECCENTRICITY><INCLINATION>51.8771</INCLINATION><RA_OF_ASC_NODE>36.3926</RA_OF_ASC_NODE><ARG_OF_PERICENTER>50.1129</ARG_OF_PERICENTER><MEAN_ANOMALY>55.4886</MEAN_ANOMALY></meanElements><tleParameters><EPHEMERIS_TYPE>0</EPHEMERIS_TYPE><CLASSIFICATION_TYPE>U</CLASSIFICATION_TYPE><NORAD_CAT_ID>63729</NORAD_CAT_ID><ELEMENT_SET_NO>999</ELEMENT_SET_NO><REV_AT_EPOCH>1389</REV_AT_EPOCH><BSTAR>-.46009E-1</BSTAR><MEAN_MOTION_DOT>-.854195E-2</MEAN_MOTION_DOT><MEAN_MOTION_DDOT>0</MEAN_MOTION_DDOT></tleParameters></data></segment></body></omm>
<omm id="CCSDS_OMM_VERS" version="2.0">
<header><CREATION_DATE/><ORIGINATOR/></header><body><segment><metadata><OBJECT_NAME>KUIPER-00014</OBJECT_NAME><OBJECT_ID>2025-088G</OBJECT_ID><CENTER_NAME>EARTH</CENTER_NAME><REF_FRAME>TEME</REF_FRAME><TIME_SYSTEM>UTC</TIME_SYSTEM><MEAN_ELEMENT_THEORY>SGP4</MEAN_ELEMENT_THEORY></metadata><data><meanElements><EPOCH>2025-07-25T18:00:02.000160</EPOCH><MEAN_MOTION>15.15511775</MEAN_MOTION><ECCENTRICITY>.0009903</ECCENTRICITY><INCLINATION>51.8787</INCLINATION><RA_OF_ASC_NODE>37.3272</RA_OF_ASC_NODE><ARG_OF_PERICENTER>79.0581</ARG_OF_PERICENTER><MEAN_ANOMALY>326.3922</MEAN_ANOMALY></meanElements><tleParameters><EPHEMERIS_TYPE>0</EPHEMERIS_TYPE><CLASSIFICATION_TYPE>U</CLASSIFICATION_TYPE><NORAD_CAT_ID>63730</NORAD_CAT_ID><ELEMENT_SET_NO>999</ELEMENT_SET_NO><REV_AT_EPOCH>1369</REV_AT_EPOCH><BSTAR>-.25546E-2</BSTAR><MEAN_MOTION_DOT>-.49054E-3</MEAN_MOTION_DOT><MEAN_MOTION_DDOT>0</MEAN_MOTION_DDOT></tleParameters></data></segment></body></omm>
<omm id="CCSDS_OMM_VERS" version="2.0">
<header><CREATION_DATE/><ORIGINATOR/></header><body><segment><metadata><OBJECT_NAME>KUIPER-00015</OBJECT_NAME><OBJECT_ID>2025-088H</OBJECT_ID><CENTER_NAME>EARTH</CENTER_NAME><REF_FRAME>TEME</REF_FRAME><TIME_SYSTEM>UTC</TIME_SYSTEM><MEAN_ELEMENT_THEORY>SGP4</MEAN_ELEMENT_THEORY></metadata><data><meanElements><EPOCH>2025-07-25T18:00:02.000160</EPOCH><MEAN_MOTION>14.94285772</MEAN_MOTION><ECCENTRICITY>.0012884</ECCENTRICITY><INCLINATION>51.8886</INCLINATION><RA_OF_ASC_NODE>45.3996</RA_OF_ASC_NODE><ARG_OF_PERICENTER>54.2220</ARG_OF_PERICENTER><MEAN_ANOMALY>272.8989</MEAN_ANOMALY></meanElements><tleParameters><EPHEMERIS_TYPE>0</EPHEMERIS_TYPE><CLASSIFICATION_TYPE>U</CLASSIFICATION_TYPE><NORAD_CAT_ID>63731</NORAD_CAT_ID><ELEMENT_SET_NO>999</ELEMENT_SET_NO><REV_AT_EPOCH>1403</REV_AT_EPOCH><BSTAR>-.80676E-2</BSTAR><MEAN_MOTION_DOT>-.86865E-3</MEAN_MOTION_DOT><MEAN_MOTION_DDOT>0</MEAN_MOTION_DDOT></tleParameters></data></segment></body></omm>

</ndm>
