KUIPER-00008            
1 63724U 25088A   25206.75002315 -.01180652  00000+0 -94367-1 0  9997
2 63724  51.8873  41.6087 0012324  63.0362 333.9557 15.02977394 14012
KUIPER-00009            
1 63725U 25088B   25206.75002315 -.01324950  00000+0 -67027-1 0  9992
2 63725  51.8774  35.7961 0011698  86.5871 312.6183 15.19700099 14097
KUIPER-00010            
1 63726U 25088C   25206.51418376  .00012190  00000+0  35267-3 0  9995
2 63726  51.8653  35.8571 0009891  71.1478 289.0580 15.35970844 13695
KUIPER-00011            
1 63727U 25088D   25206.73581387  .00009491  00000+0  28128-3 0  9991
2 63727  51.8578  35.0273 0011423  79.0371 281.1900 15.35485442 13869
KUIPER-00012            
1 63728U 25088E   25206.73416598  .00013101  00000+0  38237-3 0  9998
2 63728  51.8563  35.0072 0011501  80.7491 279.4795 15.35606154 13812
KUIPER-00013            
1 63729U 25088F   25206.75002315 -.00854195  00000+0 -46009-1 0  9991
2 63729  51.8771  36.3926 0006208  50.1129  55.4886 15.16825343 13896
KUIPER-00014            
1 63730U 25088G   25206.75002315 -.00049054  00000+0 -25546-2 0  9997
2 63730  51.8787  37.3272 0009903  79.0581 326.3922 15.15511775 13696
KUIPER-00015            
1 63731U 25088H   25206.75002315 -.00086865  00000+0 -80676-2 0  9994
2 63731  51.8886  45.3996 0012884  54.2220 272.8989 14.94285772 14034
